[Satellite]
VERSION=1.1
NAME=FALCON 9 DEB
NICKNAME=FALCON 9 DEB
TLE1=1 45105U 20006BP  20057.08459098  .00155193  21727-4  25405-3 0  9996
TLE2=2 45105  52.9969  95.0525 0015171  65.1544 295.1061 16.02696007  4402
STATUS=0
